MALLIGYONG-1            
1 58400U 23179A   24219.82499067  .00008327  00000+0  36959-3 0  9996
2 58400  97.3962 105.8166 0002840  59.9187 300.2331 15.21812397 39424
